ORBCOMM FM06            
1 25118U 97084G   26177.96015634  .00001236  00000+0  37175-3 0  9999
2 25118  45.0147   5.6641 0000184  24.6021 129.5314 14.47585900495804
ORBCOMM FM04            
1 25159U 98007C   26177.93973668  .00000778  00000+0  31165-3 0  9990
2 25159 107.9627 189.4917 0041604 308.0076  51.7311 14.35757656477997
ORBCOMM FM19            
1 25415U 98046C   26177.81874450  .00000673  00000+0  25911-3 0  9990
2 25415  44.9920 197.7782 0004352 321.8205 208.5428 14.39509459458165
ORBCOMM FM20            
1 25416U 98046D   26177.80824346  .00000477  00000+0  20255-3 0  9997
2 25416  44.9920 205.8570 0002476 282.1745  77.8825 14.38076614458175
ORBCOMM FM27            
1 25481U 98053G   26177.62838274  .00000766  00000+0  29092-3 0  9991
2 25481  45.0059 290.5114 0001847 228.9736 131.0954 14.39157684451599
ORBCOMM FM32            
1 25982U 99065C   26177.88357344  .00000622  00000+0  25467-3 0  9996
2 25982  45.0142 127.3419 0004284  92.3125 267.8214 14.37142294388489
ORBCOMM FM109           
1 40086U 14040A   26177.61804380  .00000418  00000+0  12460-3 0  9998
2 40086  47.0039  46.8982 0001974 271.3333  88.7326 14.58854922635728
ORBCOMM FM110           
1 41182U 15081D   26177.76038608  .00000589  00000+0  16079-3 0  9999
2 41182  47.0031 316.1781 0002617 133.2012 226.9093 14.58893443559029
ORBCOMM FM118           
1 41183U 15081E   26177.65769716  .00000379  00000+0  11636-3 0  9990
2 41183  47.0054 316.9968 0002301  82.6557 277.4590 14.58886957559116
ORBCOMM FM112           
1 41184U 15081F   26177.86752660  .00000349  00000+0  11006-3 0  9992
2 41184  46.9974 224.4712 0004105 256.1813 103.8616 14.58914222560360
ORBCOMM FM113           
1 41185U 15081G   26177.84446785  .00000279  00000+0  95260-4 0  9996
2 41185  46.9993 224.9614 0002595 257.9556 102.1039 14.58866369560349
ORBCOMM FM108           
1 41187U 15081J   26177.94373404  .00000591  00000+0  16110-3 0  9999
2 41187  47.0043 136.0678 0003180 258.0223 102.0307 14.58885454561508
ORBCOMM FM117           
1 41188U 15081K   26177.56688240  .00000289  00000+0  97330-4 0  9993
2 41188  47.0000 136.4805 0003648 260.3036  99.7438 14.58871605561493
ORBCOMM FM116           
1 41189U 15081L   26177.82114228  .00000384  00000+0  11732-3 0  9990
2 41189  47.0008 225.0693 0000696 160.4089 199.6823 14.58893573560349
